{
  "type": "FeatureCollection",
  "features": [
    {
      "type": "Feature",
      "properties": {
        "norad_id": 30050,
        "name": "FENGYUN 1C DEB",
        "group": "fengyun-1c-debris",
        "lat": -0.9365260410686074,
        "lon": -44.0692616670271,
        "alt_km": 823.900781282925,
        "timestamp": "2025-12-24T22:42:22.304587+00:00",
        "meta_object_name": "FENGYUN 1C DEB",
        "meta_object_id": "1999-025PB",
        "meta_epoch": "2025-12-24T03:43:26.866848",
        "meta_mean_motion": 13.85082315,
        "meta_eccentricity": 0.01710395,
        "meta_inclination": 96.8192,
        "meta_ra_of_asc_node": 315.2425,
        "meta_arg_of_pericenter": 357.7966,
        "meta_mean_anomaly": 19.751,
        "meta_ephemeris_type": 0,
        "meta_classification_type": "U",
        "meta_norad_cat_id": 30050,
        "meta_element_set_no": 999,
        "meta_rev_at_epoch": 95360,
        "meta_bstar": 0.0011733864,
        "meta_mean_motion_dot": 1.462e-05,
        "meta_mean_motion_ddot": 0,
        "tle_line1": "1 30050U 99025PB  25358.15517207  .00001462  00000+0  11734-2 0  9994",
        "tle_line2": "2 30050  96.8192 315.2425 0171039 357.7966  19.7510 13.85082315953603"
      },
      "geometry": {
        "type": "Point",
        "coordinates": [
          -44.0692616670271,
          -0.9365260410686074
        ]
      }
    },
    {
      "type": "Feature",
      "properties": {
        "norad_id": 30052,
        "name": "FENGYUN 1C DEB",
        "group": "fengyun-1c-debris",
        "lat": 73.56896311330343,
        "lon": -122.04755504179757,
        "alt_km": 1000.5368552556247,
        "timestamp": "2025-12-24T22:42:22.304598+00:00",
        "meta_object_name": "FENGYUN 1C DEB",
        "meta_object_id": "1999-025PD",
        "meta_epoch": "2025-12-24T01:28:47.264160",
        "meta_mean_motion": 13.72973269,
        "meta_eccentricity": 0.02893507,
        "meta_inclination": 99.2983,
        "meta_ra_of_asc_node": 23.3459,
        "meta_arg_of_pericenter": 202.5799,
        "meta_mean_anomaly": 215.1231,
        "meta_ephemeris_type": 0,
        "meta_classification_type": "U",
        "meta_norad_cat_id": 30052,
        "meta_element_set_no": 999,
        "meta_rev_at_epoch": 94710,
        "meta_bstar": 0.00043440311,
        "meta_mean_motion_dot": 4.98e-06,
        "meta_mean_motion_ddot": 0,
        "tle_line1": "1 30052U 99025PD  25358.06165815  .00000498  00000+0  43440-3 0  9998",
        "tle_line2": "2 30052  99.2983  23.3459 0289350 202.5799 215.1231 13.72973269947104"
      },
      "geometry": {
        "type": "Point",
        "coordinates": [
          -122.04755504179757,
          73.56896311330343
        ]
      }
    },
    {
      "type": "Feature",
      "properties": {
        "norad_id": 30053,
        "name": "FENGYUN 1C DEB",
        "group": "fengyun-1c-debris",
        "lat": 27.503420180248106,
        "lon": -4.282535414272484,
        "alt_km": 1125.1859650167507,
        "timestamp": "2025-12-24T22:42:22.304608+00:00",
        "meta_object_name": "FENGYUN 1C DEB",
        "meta_object_id": "1999-025PE",
        "meta_epoch": "2025-12-24T07:03:32.438016",
        "meta_mean_motion": 13.94204353,
        "meta_eccentricity": 0.03314454,
        "meta_inclination": 98.5761,
        "meta_ra_of_asc_node": 170.6046,
        "meta_arg_of_pericenter": 306.2884,
        "meta_mean_anomaly": 177.0701,
        "meta_ephemeris_type": 0,
        "meta_classification_type": "U",
        "meta_norad_cat_id": 30053,
        "meta_element_set_no": 999,
        "meta_rev_at_epoch": 95147,
        "meta_bstar": 0.0017690969,
        "meta_mean_motion_dot": 3.663e-05,
        "meta_mean_motion_ddot": 0,
        "tle_line1": "1 30053U 99025PE  25358.29412544  .00003663  00000+0  17691-2 0  9993",
        "tle_line2": "2 30053  98.5761 170.6046 0331445 306.2884 177.0701 13.94204353951477"
      },
      "geometry": {
        "type": "Point",
        "coordinates": [
          -4.282535414272484,
          27.503420180248106
        ]
      }
    },
    {
      "type": "Feature",
      "properties": {
        "norad_id": 30054,
        "name": "FENGYUN 1C DEB",
        "group": "fengyun-1c-debris",
        "lat": -78.58822638562278,
        "lon": 155.9826089839945,
        "alt_km": 933.0228822673971,
        "timestamp": "2025-12-24T22:42:22.304619+00:00",
        "meta_object_name": "FENGYUN 1C DEB",
        "meta_object_id": "1999-025PF",
        "meta_epoch": "2025-12-24T00:42:43.838784",
        "meta_mean_motion": 13.69877944,
        "meta_eccentricity": 0.02754719,
        "meta_inclination": 99.3706,
        "meta_ra_of_asc_node": 29.9793,
        "meta_arg_of_pericenter": 335.8761,
        "meta_mean_anomaly": 93.5337,
        "meta_ephemeris_type": 0,
        "meta_classification_type": "U",
        "meta_norad_cat_id": 30054,
        "meta_element_set_no": 999,
        "meta_rev_at_epoch": 94503,
        "meta_bstar": 0.00048249856,
        "meta_mean_motion_dot": 5.08e-06,
        "meta_mean_motion_ddot": 0,
        "tle_line1": "1 30054U 99025PF  25358.02967406  .00000508  00000+0  48250-3 0  9998",
        "tle_line2": "2 30054  99.3706  29.9793 0275471 335.8761  93.5337 13.69877944945035"
      },
      "geometry": {
        "type": "Point",
        "coordinates": [
          155.9826089839945,
          -78.58822638562278
        ]
      }
    },
    {
      "type": "Feature",
      "properties": {
        "norad_id": 30056,
        "name": "FENGYUN 1C DEB",
        "group": "fengyun-1c-debris",
        "lat": 28.043695403605266,
        "lon": 178.57156255595407,
        "alt_km": 1171.5158482547722,
        "timestamp": "2025-12-24T22:42:22.304629+00:00",
        "meta_object_name": "FENGYUN 1C DEB",
        "meta_object_id": "1999-025PH",
        "meta_epoch": "2025-12-23T23:50:27.189600",
        "meta_mean_motion": 13.74050619,
        "meta_eccentricity": 0.02990456,
        "meta_inclination": 98.3227,
        "meta_ra_of_asc_node": 182.2122,
        "meta_arg_of_pericenter": 180.4268,
        "meta_mean_anomaly": 179.6673,
        "meta_ephemeris_type": 0,
        "meta_classification_type": "U",
        "meta_norad_cat_id": 30056,
        "meta_element_set_no": 999,
        "meta_rev_at_epoch": 94130,
        "meta_bstar": 0.0023518236,
        "meta_mean_motion_dot": 3.019e-05,
        "meta_mean_motion_ddot": 0,
        "tle_line1": "1 30056U 99025PH  25357.99337025  .00003019  00000+0  23518-2 0  9992",
        "tle_line2": "2 30056  98.3227 182.2122 0299045 180.4268 179.6673 13.74050619941305"
      },
      "geometry": {
        "type": "Point",
        "coordinates": [
          178.57156255595407,
          28.043695403605266
        ]
      }
    },
    {
      "type": "Feature",
      "properties": {
        "norad_id": 30057,
        "name": "FENGYUN 1C DEB",
        "group": "fengyun-1c-debris",
        "lat": 43.73853373066458,
        "lon": -104.87628584414645,
        "alt_km": 838.4563476245239,
        "timestamp": "2025-12-24T22:42:22.304639+00:00",
        "meta_object_name": "FENGYUN 1C DEB",
        "meta_object_id": "1999-025PJ",
        "meta_epoch": "2025-12-23T10:47:18.846816",
        "meta_mean_motion": 13.57146809,
        "meta_eccentricity": 0.02918995,
        "meta_inclination": 98.8825,
        "meta_ra_of_asc_node": 65.1642,
        "meta_arg_of_pericenter": 118.931,
        "meta_mean_anomaly": 267.4713,
        "meta_ephemeris_type": 0,
        "meta_classification_type": "U",
        "meta_norad_cat_id": 30057,
        "meta_element_set_no": 999,
        "meta_rev_at_epoch": 93381,
        "meta_bstar": 0.001104167,
        "meta_mean_motion_dot": 1.001e-05,
        "meta_mean_motion_ddot": 0,
        "tle_line1": "1 30057U 99025PJ  25357.44952369  .00001001  00000+0  11042-2 0  9995",
        "tle_line2": "2 30057  98.8825  65.1642 0291899 118.9310 267.4713 13.57146809933810"
      },
      "geometry": {
        "type": "Point",
        "coordinates": [
          -104.87628584414645,
          43.73853373066458
        ]
      }
    },
    {
      "type": "Feature",
      "properties": {
        "norad_id": 30058,
        "name": "FENGYUN 1C DEB",
        "group": "fengyun-1c-debris",
        "lat": 6.188354932453613,
        "lon": -176.15094465523654,
        "alt_km": 929.6785140981438,
        "timestamp": "2025-12-24T22:42:22.304649+00:00",
        "meta_object_name": "FENGYUN 1C DEB",
        "meta_object_id": "1999-025PK",
        "meta_epoch": "2025-12-23T11:01:59.371680",
        "meta_mean_motion": 13.48249939,
        "meta_eccentricity": 0.03157587,
        "meta_inclination": 99.6498,
        "meta_ra_of_asc_node": 1.3544,
        "meta_arg_of_pericenter": 125.765,
        "meta_mean_anomaly": 34.3133,
        "meta_ephemeris_type": 0,
        "meta_classification_type": "U",
        "meta_norad_cat_id": 30058,
        "meta_element_set_no": 999,
        "meta_rev_at_epoch": 92992,
        "meta_bstar": 0.0007002921,
        "meta_mean_motion_dot": 5.48e-06,
        "meta_mean_motion_ddot": 0,
        "tle_line1": "1 30058U 99025PK  25357.45971495  .00000548  00000+0  70029-3 0  9994",
        "tle_line2": "2 30058  99.6498   1.3544 0315758 125.7650  34.3133 13.48249939929925"
      },
      "geometry": {
        "type": "Point",
        "coordinates": [
          -176.15094465523654,
          6.188354932453613
        ]
      }
    }
  ]
}